{
  "type": "FeatureCollection",
  "features": [
    {
      "type": "Feature",
      "geometry": {
        "geodesic": false,
        "type": "Polygon",
        "coordinates": [
          [
            [
              77.68747358052558,
              11.698670113560116
            ],
            [
              77.6877430751108,
              11.698670113560116
            ],
            [
              77.6877430751108,
              11.69875994508853
            ],
            [
              77.68747358052558,
              11.69875994508853
            ],
            [
              77.68747358052558,
              11.698670113560116
            ]
          ]
        ]
      },
      "id": "+864815+130229",
      "properties": {
        "count": 3,
        "latitude": 11.698715031075173,
        "longitude": 77.68760832764947,
        "risk_score": 3,
        "zone_area_km2": 0.00029311179527606455
      }
    }
  ]
}